STARLINK-32181          
1 60349U 24136W   26068.32722571 -.00000766  00000+0 -13738-4 0  9995
2 60349  53.1610  77.0184 0001207  95.4758 264.6381 15.30194267 89617
NUSHSAT1                
1 63211U 25052B   26068.64700493  .00023034  00000+0  74857-3 0  9997
2 63211  97.4095 325.7239 0005501  84.7512 275.4357 15.31903202 54882
